{
 "type": "FeatureCollection",
 "metadata": {
  "titel": "Geografische aanduidingen in Gods Woord",
  "toelichting": "Vector-data voor de kaart. Coordinaten in WGS84 [lengtegraad, breedtegraad]. 'zekerheid' geeft aan hoe zeker de moderne locatie is (zeker/waarschijnlijk/onzeker).",
  "bijgewerkt": "2026-07-19",
  "aantal": 124
 },
 "features": [
  {
   "type": "Feature",
   "geometry": {
    "type": "Point",
    "coordinates": [
     35.2137,
     31.7683
    ]
   },
   "properties": {
    "naam": "Jeruzalem",
    "type": "stad",
    "moderneNaam": "Jerusalem, Israël",
    "landModern": "Israël",
    "zekerheid": "zeker",
    "verwijzingen": [
     "2samuel 5:6",
     "1koningen 8:1",
     "lukas 2:22"
    ],
    "toelichting": "Hoofdstad van Israël en Juda, plaats van de tempel."
   }
  },
  {
   "type": "Feature",
   "geometry": {
    "type": "Point",
    "coordinates": [
     35.205,
     31.7054
    ]
   },
   "properties": {
    "naam": "Bethlehem",
    "type": "stad",
    "moderneNaam": "Bethlehem, Westelijke Jordaanoever",
    "landModern": "Palestijnse gebieden",
    "zekerheid": "zeker",
    "verwijzingen": [
     "ruth 1:1",
     "micha 5:1",
     "mattheus 2:1"
    ],
    "toelichting": "Geboorteplaats van koning David en van de Heere Jezus."
   }
  },
  {
   "type": "Feature",
   "geometry": {
    "type": "Point",
    "coordinates": [
     35.298,
     32.701
    ]
   },
   "properties": {
    "naam": "Nazareth",
    "type": "stad",
    "moderneNaam": "Nazareth, Israël",
    "landModern": "Israël",
    "zekerheid": "zeker",
    "verwijzingen": [
     "lukas 1:26",
     "mattheus 2:23",
     "johannes 1:46"
    ],
    "toelichting": "Woonplaats van Jezus in Galilea."
   }
  },
  {
   "type": "Feature",
   "geometry": {
    "type": "Point",
    "coordinates": [
     35.575,
     32.8808
    ]
   },
   "properties": {
    "naam": "Kapernaüm",
    "type": "dorp",
    "moderneNaam": "Kfar Nahum, Israël",
    "landModern": "Israël",
    "zekerheid": "zeker",
    "verwijzingen": [
     "mattheus 4:13",
     "markus 2:1",
     "lukas 4:31"
    ],
    "toelichting": "Vissersplaats aan de Zee van Galilea, centrum van Jezus' bediening."
   }
  },
  {
   "type": "Feature",
   "geometry": {
    "type": "Point",
    "coordinates": [
     35.444,
     31.87
    ]
   },
   "properties": {
    "naam": "Jericho",
    "type": "stad",
    "moderneNaam": "Jericho, Westelijke Jordaanoever",
    "landModern": "Palestijnse gebieden",
    "zekerheid": "zeker",
    "verwijzingen": [
     "jozua 6:1",
     "2koningen 2:4",
     "lukas 19:1"
    ],
    "toelichting": "Oude ommuurde stad in het Jordaandal, veroverd door Jozua."
   }
  },
  {
   "type": "Feature",
   "geometry": {
    "type": "Point",
    "coordinates": [
     35.1,
     31.5326
    ]
   },
   "properties": {
    "naam": "Hebron",
    "type": "stad",
    "moderneNaam": "Hebron, Westelijke Jordaanoever",
    "landModern": "Palestijnse gebieden",
    "zekerheid": "zeker",
    "verwijzingen": [
     "genesis 23:2",
     "numeri 13:22",
     "2samuel 5:5"
    ],
    "toelichting": "Aartsvaderstad met de grafspelonk van Machpela."
   }
  },
  {
   "type": "Feature",
   "geometry": {
    "type": "Point",
    "coordinates": [
     35.19,
     32.28
    ]
   },
   "properties": {
    "naam": "Samaria",
    "type": "stad",
    "moderneNaam": "Sebastia, Westelijke Jordaanoever",
    "landModern": "Palestijnse gebieden",
    "zekerheid": "zeker",
    "verwijzingen": [
     "1koningen 16:24",
     "2koningen 17:5",
     "handelingen 8:5"
    ],
    "toelichting": "Hoofdstad van het tienstammenrijk Israël."
   }
  },
  {
   "type": "Feature",
   "geometry": {
    "type": "Point",
    "coordinates": [
     35.283,
     32.213
    ]
   },
   "properties": {
    "naam": "Sichem",
    "type": "stad",
    "moderneNaam": "Nablus, Westelijke Jordaanoever",
    "landModern": "Palestijnse gebieden",
    "zekerheid": "zeker",
    "verwijzingen": [
     "genesis 12:6",
     "jozua 24:1",
     "johannes 4:5"
    ],
    "toelichting": "Stad tussen Ebal en Gerizim, plaats van Jakobs bron."
   }
  },
  {
   "type": "Feature",
   "geometry": {
    "type": "Point",
    "coordinates": [
     35.5312,
     32.6087
    ]
   },
   "properties": {
    "naam": "Bethsaïda",
    "type": "dorp",
    "moderneNaam": "et-Tell, Israël",
    "landModern": "Israël",
    "zekerheid": "waarschijnlijk",
    "verwijzingen": [
     "markus 8:22",
     "lukas 9:10",
     "johannes 1:44"
    ],
    "toelichting": "Vissersplaats bij de Zee van Galilea, woonplaats van apostelen."
   }
  },
  {
   "type": "Feature",
   "geometry": {
    "type": "Point",
    "coordinates": [
     34.755,
     31.8
    ]
   },
   "properties": {
    "naam": "Joppe",
    "type": "stad",
    "moderneNaam": "Jaffa (Tel Aviv), Israël",
    "landModern": "Israël",
    "zekerheid": "zeker",
    "verwijzingen": [
     "jona 1:3",
     "handelingen 9:36",
     "handelingen 10:5"
    ],
    "toelichting": "Havenstad aan de Middellandse Zee, waar Petrus verbleef."
   }
  },
  {
   "type": "Feature",
   "geometry": {
    "type": "Point",
    "coordinates": [
     34.4668,
     31.5017
    ]
   },
   "properties": {
    "naam": "Gaza",
    "type": "stad",
    "moderneNaam": "Gaza",
    "landModern": "Palestijnse gebieden",
    "zekerheid": "zeker",
    "verwijzingen": [
     "richteren 16:1",
     "jozua 11:22",
     "handelingen 8:26"
    ],
    "toelichting": "Filistijnse stad, plaats van Simsons dood."
   }
  },
  {
   "type": "Feature",
   "geometry": {
    "type": "Point",
    "coordinates": [
     34.6503,
     31.6693
    ]
   },
   "properties": {
    "naam": "Askelon",
    "type": "stad",
    "moderneNaam": "Ashkelon, Israël",
    "landModern": "Israël",
    "zekerheid": "zeker",
    "verwijzingen": [
     "richteren 14:19",
     "1samuel 6:17",
     "2samuel 1:20"
    ],
    "toelichting": "Een van de vijf Filistijnse hoofdsteden aan de kust."
   }
  },
  {
   "type": "Feature",
   "geometry": {
    "type": "Point",
    "coordinates": [
     34.8516,
     31.6653
    ]
   },
   "properties": {
    "naam": "Asdod",
    "type": "stad",
    "moderneNaam": "Ashdod, Israël",
    "landModern": "Israël",
    "zekerheid": "zeker",
    "verwijzingen": [
     "1samuel 5:1",
     "jozua 11:22",
     "nehemia 13:23"
    ],
    "toelichting": "Filistijnse stad waar de ark van God heen werd gebracht."
   }
  },
  {
   "type": "Feature",
   "geometry": {
    "type": "Point",
    "coordinates": [
     35.202,
     31.79
    ]
   },
   "properties": {
    "naam": "Gibea",
    "type": "stad",
    "moderneNaam": "Tell el-Ful, Westelijke Jordaanoever",
    "landModern": "Palestijnse gebieden",
    "zekerheid": "waarschijnlijk",
    "verwijzingen": [
     "richteren 19:14",
     "1samuel 10:26",
     "1samuel 15:34"
    ],
    "toelichting": "Woonplaats van koning Saul in Benjamin."
   }
  },
  {
   "type": "Feature",
   "geometry": {
    "type": "Point",
    "coordinates": [
     35.22,
     31.846
    ]
   },
   "properties": {
    "naam": "Bethel",
    "type": "stad",
    "moderneNaam": "Beitin, Westelijke Jordaanoever",
    "landModern": "Palestijnse gebieden",
    "zekerheid": "waarschijnlijk",
    "verwijzingen": [
     "genesis 28:19",
     "1koningen 12:29",
     "amos 7:13"
    ],
    "toelichting": "Plaats van Jakobs droom, later een cultusplaats."
   }
  },
  {
   "type": "Feature",
   "geometry": {
    "type": "Point",
    "coordinates": [
     35.205,
     31.87
    ]
   },
   "properties": {
    "naam": "Ai",
    "type": "stad",
    "moderneNaam": "et-Tell, Westelijke Jordaanoever",
    "landModern": "Palestijnse gebieden",
    "zekerheid": "onzeker",
    "verwijzingen": [
     "jozua 7:2",
     "jozua 8:1",
     "genesis 12:8"
    ],
    "toelichting": "Stad bij Bethel, veroverd na de zonde van Achan."
   }
  },
  {
   "type": "Feature",
   "geometry": {
    "type": "Point",
    "coordinates": [
     34.888,
     31.2039
    ]
   },
   "properties": {
    "naam": "Berseba",
    "type": "stad",
    "moderneNaam": "Beër Sjeva, Israël",
    "landModern": "Israël",
    "zekerheid": "zeker",
    "verwijzingen": [
     "genesis 21:31",
     "genesis 26:23",
     "1samuel 8:2"
    ],
    "toelichting": "Zuidgrens van het land, 'van Dan tot Berseba'."
   }
  },
  {
   "type": "Feature",
   "geometry": {
    "type": "Point",
    "coordinates": [
     35.5722,
     33.249
    ]
   },
   "properties": {
    "naam": "Dan",
    "type": "stad",
    "moderneNaam": "Tel Dan, Israël",
    "landModern": "Israël",
    "zekerheid": "zeker",
    "verwijzingen": [
     "richteren 18:29",
     "1koningen 12:29",
     "genesis 14:14"
    ],
    "toelichting": "Noordelijkste stad van Israël, 'van Dan tot Berseba'."
   }
  },
  {
   "type": "Feature",
   "geometry": {
    "type": "Point",
    "coordinates": [
     35.3,
     32.556
    ]
   },
   "properties": {
    "naam": "Jizreël",
    "type": "stad",
    "moderneNaam": "Jezreel, Israël",
    "landModern": "Israël",
    "zekerheid": "waarschijnlijk",
    "verwijzingen": [
     "1koningen 21:1",
     "2koningen 9:30",
     "1samuel 29:1"
    ],
    "toelichting": "Stad in de vlakte, residentie van Achab, sterfplaats van Izebel."
   }
  },
  {
   "type": "Feature",
   "geometry": {
    "type": "Point",
    "coordinates": [
     35.183,
     32.59
    ]
   },
   "properties": {
    "naam": "Megiddo",
    "type": "stad",
    "moderneNaam": "Tel Megiddo, Israël",
    "landModern": "Israël",
    "zekerheid": "zeker",
    "verwijzingen": [
     "jozua 12:21",
     "richteren 5:19",
     "2koningen 23:29"
    ],
    "toelichting": "Vestingstad in de vlakte, verbonden met Armageddon."
   }
  },
  {
   "type": "Feature",
   "geometry": {
    "type": "Point",
    "coordinates": [
     35.421,
     32.647
    ]
   },
   "properties": {
    "naam": "Bethsan",
    "type": "stad",
    "moderneNaam": "Beit She'an, Israël",
    "landModern": "Israël",
    "zekerheid": "zeker",
    "verwijzingen": [
     "jozua 17:11",
     "1samuel 31:10",
     "1koningen 4:12"
    ],
    "toelichting": "Stad waar Sauls lichaam aan de muur werd gehangen."
   }
  },
  {
   "type": "Feature",
   "geometry": {
    "type": "Point",
    "coordinates": [
     35.7003,
     32.7887
    ]
   },
   "properties": {
    "naam": "Gadara",
    "type": "stad",
    "moderneNaam": "Umm Qais, Jordanië",
    "landModern": "Jordanië",
    "zekerheid": "waarschijnlijk",
    "verwijzingen": [
     "mattheus 8:28",
     "markus 5:1",
     "lukas 8:26"
    ],
    "toelichting": "Stad in het land der Gadarenen, waar Jezus demonen uitwierp."
   }
  },
  {
   "type": "Feature",
   "geometry": {
    "type": "Point",
    "coordinates": [
     35.651,
     32.452
    ]
   },
   "properties": {
    "naam": "Pella",
    "type": "stad",
    "moderneNaam": "Tabaqat Fahl, Jordanië",
    "landModern": "Jordanië",
    "zekerheid": "waarschijnlijk",
    "verwijzingen": [
     "1makkabeeen 5:52"
    ],
    "toelichting": "Stad in de Dekapolis ten oosten van de Jordaan."
   }
  },
  {
   "type": "Feature",
   "geometry": {
    "type": "Point",
    "coordinates": [
     35.6094,
     31.9539
    ]
   },
   "properties": {
    "naam": "Rabba",
    "type": "stad",
    "moderneNaam": "Amman, Jordanië",
    "landModern": "Jordanië",
    "zekerheid": "zeker",
    "verwijzingen": [
     "2samuel 12:26",
     "deuteronomium 3:11",
     "jeremia 49:2"
    ],
    "toelichting": "Hoofdstad van de Ammonieten, het huidige Amman."
   }
  },
  {
   "type": "Feature",
   "geometry": {
    "type": "Point",
    "coordinates": [
     35.4784,
     30.3285
    ]
   },
   "properties": {
    "naam": "Petra",
    "type": "stad",
    "moderneNaam": "Petra, Jordanië",
    "landModern": "Jordanië",
    "zekerheid": "waarschijnlijk",
    "verwijzingen": [
     "2koningen 14:7",
     "jesaja 16:1"
    ],
    "toelichting": "Rotsstad Sela in Edom, later Nabatese hoofdstad."
   }
  },
  {
   "type": "Feature",
   "geometry": {
    "type": "Point",
    "coordinates": [
     35.2137,
     31.465
    ]
   },
   "properties": {
    "naam": "Bethphage",
    "type": "dorp",
    "moderneNaam": "bij Jeruzalem, Israël",
    "landModern": "Israël",
    "zekerheid": "onzeker",
    "verwijzingen": [
     "mattheus 21:1",
     "markus 11:1",
     "lukas 19:29"
    ],
    "toelichting": "Dorp bij de Olijfberg waar Jezus zijn intocht begon."
   }
  },
  {
   "type": "Feature",
   "geometry": {
    "type": "Point",
    "coordinates": [
     35.262,
     31.771
    ]
   },
   "properties": {
    "naam": "Bethanië",
    "type": "dorp",
    "moderneNaam": "al-Eizariya, Westelijke Jordaanoever",
    "landModern": "Palestijnse gebieden",
    "zekerheid": "waarschijnlijk",
    "verwijzingen": [
     "johannes 11:1",
     "markus 11:11",
     "lukas 24:50"
    ],
    "toelichting": "Dorp van Lazarus, Martha en Maria bij de Olijfberg."
   }
  },
  {
   "type": "Feature",
   "geometry": {
    "type": "Point",
    "coordinates": [
     35.3,
     31.63
    ]
   },
   "properties": {
    "naam": "Tekoa",
    "type": "dorp",
    "moderneNaam": "Tuqu, Westelijke Jordaanoever",
    "landModern": "Palestijnse gebieden",
    "zekerheid": "waarschijnlijk",
    "verwijzingen": [
     "amos 1:1",
     "2samuel 14:2",
     "2kronieken 20:20"
    ],
    "toelichting": "Woonplaats van de profeet Amos in Juda."
   }
  },
  {
   "type": "Feature",
   "geometry": {
    "type": "Point",
    "coordinates": [
     35.5108,
     31.7411
    ]
   },
   "properties": {
    "naam": "Gilgal",
    "type": "streek",
    "moderneNaam": "bij Jericho, Westelijke Jordaanoever",
    "landModern": "Palestijnse gebieden",
    "zekerheid": "onzeker",
    "verwijzingen": [
     "jozua 4:19",
     "1samuel 11:15",
     "2koningen 2:1"
    ],
    "toelichting": "Eerste legerplaats van Israël na de Jordaan-overtocht."
   }
  },
  {
   "type": "Feature",
   "geometry": {
    "type": "Point",
    "coordinates": [
     35.2019,
     31.7784
    ]
   },
   "properties": {
    "naam": "Gibeon",
    "type": "stad",
    "moderneNaam": "al-Jib, Westelijke Jordaanoever",
    "landModern": "Palestijnse gebieden",
    "zekerheid": "waarschijnlijk",
    "verwijzingen": [
     "jozua 9:3",
     "jozua 10:12",
     "2samuel 2:13"
    ],
    "toelichting": "Stad waar de zon voor Jozua stilstond."
   }
  },
  {
   "type": "Feature",
   "geometry": {
    "type": "Point",
    "coordinates": [
     35.29,
     32.1
    ]
   },
   "properties": {
    "naam": "Silo",
    "type": "stad",
    "moderneNaam": "Khirbet Seilun, Westelijke Jordaanoever",
    "landModern": "Palestijnse gebieden",
    "zekerheid": "waarschijnlijk",
    "verwijzingen": [
     "jozua 18:1",
     "1samuel 1:3",
     "jeremia 7:12"
    ],
    "toelichting": "Plaats van de tabernakel in de tijd van Eli en Samuel."
   }
  },
  {
   "type": "Feature",
   "geometry": {
    "type": "Point",
    "coordinates": [
     34.888,
     31.69
    ]
   },
   "properties": {
    "naam": "Ekron",
    "type": "stad",
    "moderneNaam": "Tel Miqne, Israël",
    "landModern": "Israël",
    "zekerheid": "waarschijnlijk",
    "verwijzingen": [
     "1samuel 5:10",
     "jozua 13:3",
     "2koningen 1:2"
    ],
    "toelichting": "Noordelijkste van de vijf Filistijnse hoofdsteden."
   }
  },
  {
   "type": "Feature",
   "geometry": {
    "type": "Point",
    "coordinates": [
     34.849,
     31.561
    ]
   },
   "properties": {
    "naam": "Gath",
    "type": "stad",
    "moderneNaam": "Tell es-Safi, Israël",
    "landModern": "Israël",
    "zekerheid": "waarschijnlijk",
    "verwijzingen": [
     "1samuel 17:4",
     "1samuel 5:8",
     "2samuel 1:20"
    ],
    "toelichting": "Filistijnse stad, thuis van de reus Goliath."
   }
  },
  {
   "type": "Feature",
   "geometry": {
    "type": "Point",
    "coordinates": [
     35.214,
     31.585
    ]
   },
   "properties": {
    "naam": "Adullam",
    "type": "stad",
    "moderneNaam": "Khirbet esh-Sheikh Madhkur, Israël",
    "landModern": "Israël",
    "zekerheid": "onzeker",
    "verwijzingen": [
     "1samuel 22:1",
     "2samuel 23:13",
     "micha 1:15"
    ],
    "toelichting": "Spelonk waar David schuilde voor Saul."
   }
  },
  {
   "type": "Feature",
   "geometry": {
    "type": "Point",
    "coordinates": [
     35.234,
     32.794
    ]
   },
   "properties": {
    "naam": "Zee van Galilea",
    "type": "meer",
    "moderneNaam": "Meer van Tiberias (Kinneret), Israël",
    "landModern": "Israël",
    "zekerheid": "zeker",
    "verwijzingen": [
     "mattheus 4:18",
     "johannes 6:1",
     "lukas 5:1"
    ],
    "toelichting": "Zoetwatermeer in Galilea, centrum van Jezus' bediening."
   }
  },
  {
   "type": "Feature",
   "geometry": {
    "type": "Point",
    "coordinates": [
     35.4732,
     31.5
    ]
   },
   "properties": {
    "naam": "Zoutzee",
    "type": "zee",
    "moderneNaam": "Dode Zee, Israël/Jordanië",
    "landModern": "Israël",
    "zekerheid": "zeker",
    "verwijzingen": [
     "genesis 14:3",
     "numeri 34:12",
     "jozua 3:16"
    ],
    "toelichting": "Het laagste punt op aarde, ook wel Zoutzee genoemd."
   }
  },
  {
   "type": "Feature",
   "geometry": {
    "type": "Point",
    "coordinates": [
     35.5555,
     32.311
    ]
   },
   "properties": {
    "naam": "Jordaan",
    "type": "rivier",
    "moderneNaam": "Jordaan, Israël/Jordanië",
    "landModern": "Israël",
    "zekerheid": "zeker",
    "verwijzingen": [
     "jozua 3:15",
     "2koningen 5:10",
     "mattheus 3:13"
    ],
    "toelichting": "Rivier waarin Jezus door Johannes werd gedoopt."
   }
  },
  {
   "type": "Feature",
   "geometry": {
    "type": "Point",
    "coordinates": [
     35.105,
     33.25
    ]
   },
   "properties": {
    "naam": "Merom",
    "type": "meer",
    "moderneNaam": "Hula-vallei, Israël",
    "landModern": "Israël",
    "zekerheid": "onzeker",
    "verwijzingen": [
     "jozua 11:5",
     "jozua 11:7"
    ],
    "toelichting": "Wateren van Merom waar Jozua een noordelijke coalitie versloeg."
   }
  },
  {
   "type": "Feature",
   "geometry": {
    "type": "Point",
    "coordinates": [
     35.227,
     32.43
    ]
   },
   "properties": {
    "naam": "Kison",
    "type": "rivier",
    "moderneNaam": "Kishon, Israël",
    "landModern": "Israël",
    "zekerheid": "waarschijnlijk",
    "verwijzingen": [
     "richteren 4:7",
     "richteren 5:21",
     "1koningen 18:40"
    ],
    "toelichting": "Beek waar Sisera's leger werd weggespoeld."
   }
  },
  {
   "type": "Feature",
   "geometry": {
    "type": "Point",
    "coordinates": [
     35.268,
     31.7784
    ]
   },
   "properties": {
    "naam": "Sion",
    "type": "berg",
    "moderneNaam": "Berg Sion, Jeruzalem",
    "landModern": "Israël",
    "zekerheid": "zeker",
    "verwijzingen": [
     "2samuel 5:7",
     "psalmen 48:3",
     "jesaja 2:3"
    ],
    "toelichting": "Tempelberg en dichterlijke naam voor Jeruzalem."
   }
  },
  {
   "type": "Feature",
   "geometry": {
    "type": "Point",
    "coordinates": [
     35.245,
     31.7784
    ]
   },
   "properties": {
    "naam": "Olijfberg",
    "type": "berg",
    "moderneNaam": "Har HaZeitim, Jeruzalem",
    "landModern": "Israël",
    "zekerheid": "zeker",
    "verwijzingen": [
     "zacharia 14:4",
     "lukas 22:39",
     "handelingen 1:12"
    ],
    "toelichting": "Berg ten oosten van Jeruzalem, plaats van de hemelvaart."
   }
  },
  {
   "type": "Feature",
   "geometry": {
    "type": "Point",
    "coordinates": [
     35.03,
     32.73
    ]
   },
   "properties": {
    "naam": "Karmel",
    "type": "berg",
    "moderneNaam": "Karmelgebergte, Israël",
    "landModern": "Israël",
    "zekerheid": "zeker",
    "verwijzingen": [
     "1koningen 18:19",
     "2koningen 4:25",
     "jesaja 35:2"
    ],
    "toelichting": "Berg waar Elia de Baälprofeten versloeg."
   }
  },
  {
   "type": "Feature",
   "geometry": {
    "type": "Point",
    "coordinates": [
     35.39,
     32.687
    ]
   },
   "properties": {
    "naam": "Thabor",
    "type": "berg",
    "moderneNaam": "Har Tavor, Israël",
    "landModern": "Israël",
    "zekerheid": "zeker",
    "verwijzingen": [
     "richteren 4:6",
     "psalmen 89:13",
     "jozua 19:22"
    ],
    "toelichting": "Alleenstaande berg in Galilea, verzamelplaats van Barak."
   }
  },
  {
   "type": "Feature",
   "geometry": {
    "type": "Point",
    "coordinates": [
     35.9165,
     33.4171
    ]
   },
   "properties": {
    "naam": "Hermon",
    "type": "berg",
    "moderneNaam": "Jabal al-Shaykh, Syrië/Libanon",
    "landModern": "Syrië",
    "zekerheid": "zeker",
    "verwijzingen": [
     "deuteronomium 3:8",
     "psalmen 133:3",
     "jozua 11:17"
    ],
    "toelichting": "Hoogste besneeuwde berg aan de noordgrens van het land."
   }
  },
  {
   "type": "Feature",
   "geometry": {
    "type": "Point",
    "coordinates": [
     35.283,
     32.2
    ]
   },
   "properties": {
    "naam": "Gerizim",
    "type": "berg",
    "moderneNaam": "Har Gerizim, Westelijke Jordaanoever",
    "landModern": "Palestijnse gebieden",
    "zekerheid": "zeker",
    "verwijzingen": [
     "deuteronomium 11:29",
     "jozua 8:33",
     "johannes 4:20"
    ],
    "toelichting": "Berg van de zegen bij Sichem, heilig voor de Samaritanen."
   }
  },
  {
   "type": "Feature",
   "geometry": {
    "type": "Point",
    "coordinates": [
     35.283,
     32.228
    ]
   },
   "properties": {
    "naam": "Ebal",
    "type": "berg",
    "moderneNaam": "Har Eival, Westelijke Jordaanoever",
    "landModern": "Palestijnse gebieden",
    "zekerheid": "zeker",
    "verwijzingen": [
     "deuteronomium 11:29",
     "jozua 8:30",
     "deuteronomium 27:13"
    ],
    "toelichting": "Berg van de vloek bij Sichem, plaats van Jozua's altaar."
   }
  },
  {
   "type": "Feature",
   "geometry": {
    "type": "Point",
    "coordinates": [
     35.7263,
     31.7681
    ]
   },
   "properties": {
    "naam": "Nebo",
    "type": "berg",
    "moderneNaam": "Jabal Nibu, Jordanië",
    "landModern": "Jordanië",
    "zekerheid": "zeker",
    "verwijzingen": [
     "deuteronomium 34:1",
     "deuteronomium 32:49"
    ],
    "toelichting": "Berg vanwaar Mozes het beloofde land zag en stierf."
   }
  },
  {
   "type": "Feature",
   "geometry": {
    "type": "Point",
    "coordinates": [
     33.975,
     28.5397
    ]
   },
   "properties": {
    "naam": "Sinaï",
    "type": "berg",
    "moderneNaam": "Jabal Musa, Egypte",
    "landModern": "Egypte",
    "zekerheid": "waarschijnlijk",
    "verwijzingen": [
     "exodus 19:20",
     "exodus 24:16",
     "exodus 31:18"
    ],
    "toelichting": "Berg (Horeb) waar Mozes de wet ontving; exacte plaats onzeker."
   }
  },
  {
   "type": "Feature",
   "geometry": {
    "type": "Point",
    "coordinates": [
     35.5138,
     33.2721
    ]
   },
   "properties": {
    "naam": "Tyrus",
    "type": "stad",
    "moderneNaam": "Sour, Libanon",
    "landModern": "Libanon",
    "zekerheid": "zeker",
    "verwijzingen": [
     "ezechiel 26:2",
     "1koningen 5:1",
     "mattheus 15:21"
    ],
    "toelichting": "Fenicische havenstad, bekend om handel en purperverf."
   }
  },
  {
   "type": "Feature",
   "geometry": {
    "type": "Point",
    "coordinates": [
     35.369,
     33.5606
    ]
   },
   "properties": {
    "naam": "Sidon",
    "type": "stad",
    "moderneNaam": "Saida, Libanon",
    "landModern": "Libanon",
    "zekerheid": "zeker",
    "verwijzingen": [
     "genesis 10:19",
     "1koningen 17:9",
     "mattheus 15:21"
    ],
    "toelichting": "Oude Fenicische havenstad ten noorden van Tyrus."
   }
  },
  {
   "type": "Feature",
   "geometry": {
    "type": "Point",
    "coordinates": [
     35.376,
     34.356
    ]
   },
   "properties": {
    "naam": "Gebal",
    "type": "stad",
    "moderneNaam": "Byblos, Libanon",
    "landModern": "Libanon",
    "zekerheid": "zeker",
    "verwijzingen": [
     "ezechiel 27:9",
     "1koningen 5:18",
     "psalmen 83:8"
    ],
    "toelichting": "Fenicische stad Byblos, bekend om scheepsbouwers."
   }
  },
  {
   "type": "Feature",
   "geometry": {
    "type": "Point",
    "coordinates": [
     36.2765,
     33.5138
    ]
   },
   "properties": {
    "naam": "Damascus",
    "type": "stad",
    "moderneNaam": "Damascus, Syrië",
    "landModern": "Syrië",
    "zekerheid": "zeker",
    "verwijzingen": [
     "genesis 14:15",
     "2koningen 5:12",
     "handelingen 9:3"
    ],
    "toelichting": "Hoofdstad van Aram (Syrië), plaats van Paulus' bekering."
   }
  },
  {
   "type": "Feature",
   "geometry": {
    "type": "Point",
    "coordinates": [
     36.7167,
     35.15
    ]
   },
   "properties": {
    "naam": "Hamath",
    "type": "stad",
    "moderneNaam": "Hama, Syrië",
    "landModern": "Syrië",
    "zekerheid": "zeker",
    "verwijzingen": [
     "numeri 34:8",
     "2koningen 14:28",
     "amos 6:2"
    ],
    "toelichting": "Aramese stad aan de Orontes, noordgrens 'de ingang van Hamath'."
   }
  },
  {
   "type": "Feature",
   "geometry": {
    "type": "Point",
    "coordinates": [
     38.0247,
     36.7873
    ]
   },
   "properties": {
    "naam": "Karchemis",
    "type": "stad",
    "moderneNaam": "Karkemish, Turkije/Syrië",
    "landModern": "Turkije",
    "zekerheid": "zeker",
    "verwijzingen": [
     "jeremia 46:2",
     "2kronieken 35:20",
     "jesaja 10:9"
    ],
    "toelichting": "Stad aan de Eufraat waar Nebukadnezar farao Necho versloeg."
   }
  },
  {
   "type": "Feature",
   "geometry": {
    "type": "Point",
    "coordinates": [
     36.549,
     36.254
    ]
   },
   "properties": {
    "naam": "Antiochië",
    "type": "stad",
    "moderneNaam": "Antakya, Turkije",
    "landModern": "Turkije",
    "zekerheid": "zeker",
    "verwijzingen": [
     "handelingen 11:26",
     "handelingen 13:1",
     "galaten 2:11"
    ],
    "toelichting": "Stad in Syrië waar gelovigen het eerst christenen werden genoemd."
   }
  },
  {
   "type": "Feature",
   "geometry": {
    "type": "Point",
    "coordinates": [
     44.4208,
     32.5364
    ]
   },
   "properties": {
    "naam": "Babel",
    "type": "stad",
    "moderneNaam": "Babylon (bij Hilla), Irak",
    "landModern": "Irak",
    "zekerheid": "zeker",
    "verwijzingen": [
     "genesis 11:9",
     "2koningen 25:1",
     "daniel 4:30"
    ],
    "toelichting": "Hoofdstad van het Babylonische rijk, plaats van de ballingschap."
   }
  },
  {
   "type": "Feature",
   "geometry": {
    "type": "Point",
    "coordinates": [
     43.161,
     36.36
    ]
   },
   "properties": {
    "naam": "Ninevé",
    "type": "stad",
    "moderneNaam": "Mosul (Kuyunjik), Irak",
    "landModern": "Irak",
    "zekerheid": "zeker",
    "verwijzingen": [
     "jona 3:3",
     "nahum 1:1",
     "genesis 10:11"
    ],
    "toelichting": "Hoofdstad van Assyrië, waarheen Jona werd gezonden."
   }
  },
  {
   "type": "Feature",
   "geometry": {
    "type": "Point",
    "coordinates": [
     43.263,
     35.46
    ]
   },
   "properties": {
    "naam": "Kalach",
    "type": "stad",
    "moderneNaam": "Nimrud, Irak",
    "landModern": "Irak",
    "zekerheid": "zeker",
    "verwijzingen": [
     "genesis 10:11",
     "genesis 10:12"
    ],
    "toelichting": "Assyrische stad Kalach, gebouwd door Nimrod."
   }
  },
  {
   "type": "Feature",
   "geometry": {
    "type": "Point",
    "coordinates": [
     45.94,
     32.55
    ]
   },
   "properties": {
    "naam": "Ur",
    "type": "stad",
    "moderneNaam": "Tell el-Muqayyar, Irak",
    "landModern": "Irak",
    "zekerheid": "zeker",
    "verwijzingen": [
     "genesis 11:28",
     "genesis 11:31",
     "nehemia 9:7"
    ],
    "toelichting": "Ur der Chaldeeën, geboortestad van Abraham."
   }
  },
  {
   "type": "Feature",
   "geometry": {
    "type": "Point",
    "coordinates": [
     39.031,
     36.865
    ]
   },
   "properties": {
    "naam": "Haran",
    "type": "stad",
    "moderneNaam": "Harran, Turkije",
    "landModern": "Turkije",
    "zekerheid": "zeker",
    "verwijzingen": [
     "genesis 11:31",
     "genesis 12:4",
     "genesis 28:10"
    ],
    "toelichting": "Stad in Mesopotamië waar Abrahams familie woonde."
   }
  },
  {
   "type": "Feature",
   "geometry": {
    "type": "Point",
    "coordinates": [
     52.8916,
     29.935
    ]
   },
   "properties": {
    "naam": "Persepolis",
    "type": "stad",
    "moderneNaam": "Persepolis, Iran",
    "landModern": "Iran",
    "zekerheid": "zeker",
    "verwijzingen": [
     "2makkabeeen 9:2"
    ],
    "toelichting": "Ceremoniële hoofdstad van het Perzische rijk."
   }
  },
  {
   "type": "Feature",
   "geometry": {
    "type": "Point",
    "coordinates": [
     48.26,
     32.19
    ]
   },
   "properties": {
    "naam": "Susan",
    "type": "stad",
    "moderneNaam": "Shush, Iran",
    "landModern": "Iran",
    "zekerheid": "zeker",
    "verwijzingen": [
     "esther 1:2",
     "nehemia 1:1",
     "daniel 8:2"
    ],
    "toelichting": "Susa, winterresidentie van de Perzische koningen."
   }
  },
  {
   "type": "Feature",
   "geometry": {
    "type": "Point",
    "coordinates": [
     31.2357,
     30.0444
    ]
   },
   "properties": {
    "naam": "Egypteland",
    "type": "land",
    "moderneNaam": "Egypte",
    "landModern": "Egypte",
    "zekerheid": "zeker",
    "verwijzingen": [
     "genesis 12:10",
     "exodus 1:8",
     "mattheus 2:14"
    ],
    "toelichting": "Land van de slavernij en van de uittocht onder Mozes."
   }
  },
  {
   "type": "Feature",
   "geometry": {
    "type": "Point",
    "coordinates": [
     31.21,
     30.05
    ]
   },
   "properties": {
    "naam": "Nijl",
    "type": "rivier",
    "moderneNaam": "Nijl, Egypte",
    "landModern": "Egypte",
    "zekerheid": "zeker",
    "verwijzingen": [
     "exodus 1:22",
     "exodus 7:20",
     "jesaja 19:7"
    ],
    "toelichting": "Levensader van Egypte, veranderd in bloed bij de plagen."
   }
  },
  {
   "type": "Feature",
   "geometry": {
    "type": "Point",
    "coordinates": [
     29.9187,
     31.2001
    ]
   },
   "properties": {
    "naam": "Alexandrië",
    "type": "stad",
    "moderneNaam": "Alexandrië, Egypte",
    "landModern": "Egypte",
    "zekerheid": "zeker",
    "verwijzingen": [
     "handelingen 18:24",
     "handelingen 27:6",
     "handelingen 6:9"
    ],
    "toelichting": "Grote Griekse havenstad in Egypte, thuis van Apollos."
   }
  },
  {
   "type": "Feature",
   "geometry": {
    "type": "Point",
    "coordinates": [
     31.8,
     30.8
    ]
   },
   "properties": {
    "naam": "Gosen",
    "type": "streek",
    "moderneNaam": "oostelijke Nijldelta, Egypte",
    "landModern": "Egypte",
    "zekerheid": "waarschijnlijk",
    "verwijzingen": [
     "genesis 47:6",
     "genesis 45:10",
     "exodus 9:26"
    ],
    "toelichting": "Vruchtbare streek waar de Israëlieten in Egypte woonden."
   }
  },
  {
   "type": "Feature",
   "geometry": {
    "type": "Point",
    "coordinates": [
     32.583,
     29.97
    ]
   },
   "properties": {
    "naam": "Schelfzee",
    "type": "zee",
    "moderneNaam": "Rode Zee (Golf van Suez)",
    "landModern": "Egypte",
    "zekerheid": "waarschijnlijk",
    "verwijzingen": [
     "exodus 14:21",
     "exodus 15:4",
     "psalmen 106:9"
    ],
    "toelichting": "Zee die zich splitste bij de uittocht; exacte plaats besproken."
   }
  },
  {
   "type": "Feature",
   "geometry": {
    "type": "Point",
    "coordinates": [
     35.2137,
     31.9
    ]
   },
   "properties": {
    "naam": "Kanaän",
    "type": "land",
    "moderneNaam": "Israël/Palestina/Libanon",
    "landModern": "Israël",
    "zekerheid": "zeker",
    "verwijzingen": [
     "genesis 12:5",
     "exodus 6:4",
     "numeri 13:2"
    ],
    "toelichting": "Het beloofde land, aan Abraham en zijn nageslacht toegezegd."
   }
  },
  {
   "type": "Feature",
   "geometry": {
    "type": "Point",
    "coordinates": [
     35.4,
     32.6
    ]
   },
   "properties": {
    "naam": "Galilea",
    "type": "streek",
    "moderneNaam": "Galilea, Israël",
    "landModern": "Israël",
    "zekerheid": "zeker",
    "verwijzingen": [
     "mattheus 4:23",
     "johannes 7:41",
     "handelingen 9:31"
    ],
    "toelichting": "Noordelijke streek waar Jezus opgroeide en veel predikte."
   }
  },
  {
   "type": "Feature",
   "geometry": {
    "type": "Point",
    "coordinates": [
     35.2,
     31.5
    ]
   },
   "properties": {
    "naam": "Judea",
    "type": "streek",
    "moderneNaam": "Judea, Israël/Westelijke Jordaanoever",
    "landModern": "Israël",
    "zekerheid": "zeker",
    "verwijzingen": [
     "mattheus 2:1",
     "lukas 1:65",
     "handelingen 1:8"
    ],
    "toelichting": "Zuidelijke streek rond Jeruzalem in Nieuwtestamentische tijd."
   }
  },
  {
   "type": "Feature",
   "geometry": {
    "type": "Point",
    "coordinates": [
     35.29,
     32.2
    ]
   },
   "properties": {
    "naam": "Samaria (streek)",
    "type": "streek",
    "moderneNaam": "Samaria, Westelijke Jordaanoever",
    "landModern": "Palestijnse gebieden",
    "zekerheid": "zeker",
    "verwijzingen": [
     "johannes 4:4",
     "lukas 17:11",
     "handelingen 8:1"
    ],
    "toelichting": "Middenstreek tussen Galilea en Judea, land der Samaritanen."
   }
  },
  {
   "type": "Feature",
   "geometry": {
    "type": "Point",
    "coordinates": [
     35.7,
     32.2
    ]
   },
   "properties": {
    "naam": "Gilead",
    "type": "streek",
    "moderneNaam": "noord-Jordanië",
    "landModern": "Jordanië",
    "zekerheid": "zeker",
    "verwijzingen": [
     "genesis 31:21",
     "numeri 32:1",
     "jeremia 8:22"
    ],
    "toelichting": "Bergland ten oosten van de Jordaan, bekend om zijn balsem."
   }
  },
  {
   "type": "Feature",
   "geometry": {
    "type": "Point",
    "coordinates": [
     35.7,
     31.4
    ]
   },
   "properties": {
    "naam": "Moab",
    "type": "land",
    "moderneNaam": "west-Jordanië",
    "landModern": "Jordanië",
    "zekerheid": "zeker",
    "verwijzingen": [
     "ruth 1:1",
     "numeri 22:1",
     "deuteronomium 34:5"
    ],
    "toelichting": "Land ten oosten van de Dode Zee, herkomst van Ruth."
   }
  },
  {
   "type": "Feature",
   "geometry": {
    "type": "Point",
    "coordinates": [
     35.6,
     30.5
    ]
   },
   "properties": {
    "naam": "Edom",
    "type": "land",
    "moderneNaam": "zuid-Jordanië",
    "landModern": "Jordanië",
    "zekerheid": "zeker",
    "verwijzingen": [
     "genesis 36:8",
     "numeri 20:14",
     "obadja 1:1"
    ],
    "toelichting": "Bergland van Ezau's nakomelingen ten zuiden van de Dode Zee."
   }
  },
  {
   "type": "Feature",
   "geometry": {
    "type": "Point",
    "coordinates": [
     36.2,
     32.8
    ]
   },
   "properties": {
    "naam": "Basan",
    "type": "streek",
    "moderneNaam": "Golan/Hauran, Syrië",
    "landModern": "Syrië",
    "zekerheid": "waarschijnlijk",
    "verwijzingen": [
     "numeri 21:33",
     "deuteronomium 3:1",
     "psalmen 22:13"
    ],
    "toelichting": "Vruchtbaar hoogland ten oosten van het meer, bekend om zijn vee."
   }
  },
  {
   "type": "Feature",
   "geometry": {
    "type": "Point",
    "coordinates": [
     35.1,
     30.6
    ]
   },
   "properties": {
    "naam": "Woestijn Zin",
    "type": "streek",
    "moderneNaam": "Negev/Wadi Zin, Israël",
    "landModern": "Israël",
    "zekerheid": "waarschijnlijk",
    "verwijzingen": [
     "numeri 20:1",
     "numeri 13:21",
     "jozua 15:1"
    ],
    "toelichting": "Woestijnstreek in het zuiden op de weg naar Kanaän."
   }
  },
  {
   "type": "Feature",
   "geometry": {
    "type": "Point",
    "coordinates": [
     34.42,
     30.69
    ]
   },
   "properties": {
    "naam": "Kades-Barnea",
    "type": "streek",
    "moderneNaam": "Ain el-Qudeirat, Egypte/Israël",
    "landModern": "Egypte",
    "zekerheid": "waarschijnlijk",
    "verwijzingen": [
     "numeri 13:26",
     "numeri 20:1",
     "deuteronomium 1:19"
    ],
    "toelichting": "Oase waar Israël lang verbleef en de verspieders uitzond."
   }
  },
  {
   "type": "Feature",
   "geometry": {
    "type": "Point",
    "coordinates": [
     12.4964,
     41.9028
    ]
   },
   "properties": {
    "naam": "Rome",
    "type": "stad",
    "moderneNaam": "Rome, Italië",
    "landModern": "Italië",
    "zekerheid": "zeker",
    "verwijzingen": [
     "handelingen 28:16",
     "romeinen 1:7",
     "2timotheus 1:17"
    ],
    "toelichting": "Hoofdstad van het Romeinse rijk, waar Paulus gevangen zat."
   }
  },
  {
   "type": "Feature",
   "geometry": {
    "type": "Point",
    "coordinates": [
     14.121,
     40.823
    ]
   },
   "properties": {
    "naam": "Puteoli",
    "type": "stad",
    "moderneNaam": "Pozzuoli, Italië",
    "landModern": "Italië",
    "zekerheid": "zeker",
    "verwijzingen": [
     "handelingen 28:13"
    ],
    "toelichting": "Havenstad bij Napels waar Paulus in Italië aankwam."
   }
  },
  {
   "type": "Feature",
   "geometry": {
    "type": "Point",
    "coordinates": [
     23.7275,
     37.9838
    ]
   },
   "properties": {
    "naam": "Athene",
    "type": "stad",
    "moderneNaam": "Athene, Griekenland",
    "landModern": "Griekenland",
    "zekerheid": "zeker",
    "verwijzingen": [
     "handelingen 17:16",
     "handelingen 17:22",
     "1tessalonicensen 3:1"
    ],
    "toelichting": "Griekse stad waar Paulus op de Areopagus sprak."
   }
  },
  {
   "type": "Feature",
   "geometry": {
    "type": "Point",
    "coordinates": [
     22.9319,
     37.9058
    ]
   },
   "properties": {
    "naam": "Korinthe",
    "type": "stad",
    "moderneNaam": "Korinthe, Griekenland",
    "landModern": "Griekenland",
    "zekerheid": "zeker",
    "verwijzingen": [
     "handelingen 18:1",
     "1korinthiers 1:2",
     "2korinthiers 1:1"
    ],
    "toelichting": "Handelsstad waar Paulus achttien maanden verbleef."
   }
  },
  {
   "type": "Feature",
   "geometry": {
    "type": "Point",
    "coordinates": [
     23.15,
     37.94
    ]
   },
   "properties": {
    "naam": "Kenchreën",
    "type": "dorp",
    "moderneNaam": "Kechries, Griekenland",
    "landModern": "Griekenland",
    "zekerheid": "zeker",
    "verwijzingen": [
     "handelingen 18:18",
     "romeinen 16:1"
    ],
    "toelichting": "Oostelijke haven van Korinthe, gemeente van Febe."
   }
  },
  {
   "type": "Feature",
   "geometry": {
    "type": "Point",
    "coordinates": [
     22.9444,
     40.6401
    ]
   },
   "properties": {
    "naam": "Thessalonica",
    "type": "stad",
    "moderneNaam": "Thessaloniki, Griekenland",
    "landModern": "Griekenland",
    "zekerheid": "zeker",
    "verwijzingen": [
     "handelingen 17:1",
     "1tessalonicensen 1:1",
     "filippenzen 4:16"
    ],
    "toelichting": "Hoofdstad van Macedonië, ontvangers van Paulus' brieven."
   }
  },
  {
   "type": "Feature",
   "geometry": {
    "type": "Point",
    "coordinates": [
     22.52,
     40.52
    ]
   },
   "properties": {
    "naam": "Berea",
    "type": "stad",
    "moderneNaam": "Veria, Griekenland",
    "landModern": "Griekenland",
    "zekerheid": "zeker",
    "verwijzingen": [
     "handelingen 17:10",
     "handelingen 17:13"
    ],
    "toelichting": "Stad waar de Joden dagelijks de Schriften onderzochten."
   }
  },
  {
   "type": "Feature",
   "geometry": {
    "type": "Point",
    "coordinates": [
     24.287,
     40.944
    ]
   },
   "properties": {
    "naam": "Filippi",
    "type": "stad",
    "moderneNaam": "Filippi (bij Kavala), Griekenland",
    "landModern": "Griekenland",
    "zekerheid": "zeker",
    "verwijzingen": [
     "handelingen 16:12",
     "filippenzen 1:1",
     "1tessalonicensen 2:2"
    ],
    "toelichting": "Eerste stad in Europa waar Paulus het Evangelie bracht."
   }
  },
  {
   "type": "Feature",
   "geometry": {
    "type": "Point",
    "coordinates": [
     24.402,
     40.937
    ]
   },
   "properties": {
    "naam": "Neápolis",
    "type": "stad",
    "moderneNaam": "Kavala, Griekenland",
    "landModern": "Griekenland",
    "zekerheid": "zeker",
    "verwijzingen": [
     "handelingen 16:11"
    ],
    "toelichting": "Havenstad waar Paulus voet aan wal zette in Europa."
   }
  },
  {
   "type": "Feature",
   "geometry": {
    "type": "Point",
    "coordinates": [
     27.34,
     37.949
    ]
   },
   "properties": {
    "naam": "Efeze",
    "type": "stad",
    "moderneNaam": "Efeze (bij Selçuk), Turkije",
    "landModern": "Turkije",
    "zekerheid": "zeker",
    "verwijzingen": [
     "handelingen 19:1",
     "efeziers 1:1",
     "openbaring 2:1"
    ],
    "toelichting": "Grote stad in Asia met de tempel van Diana."
   }
  },
  {
   "type": "Feature",
   "geometry": {
    "type": "Point",
    "coordinates": [
     28.04,
     38.489
    ]
   },
   "properties": {
    "naam": "Sardes",
    "type": "stad",
    "moderneNaam": "Sart, Turkije",
    "landModern": "Turkije",
    "zekerheid": "zeker",
    "verwijzingen": [
     "openbaring 3:1",
     "openbaring 1:11"
    ],
    "toelichting": "Een van de zeven gemeenten van Openbaring, oude Lydische hoofdstad."
   }
  },
  {
   "type": "Feature",
   "geometry": {
    "type": "Point",
    "coordinates": [
     27.183,
     39.121
    ]
   },
   "properties": {
    "naam": "Pergamus",
    "type": "stad",
    "moderneNaam": "Bergama, Turkije",
    "landModern": "Turkije",
    "zekerheid": "zeker",
    "verwijzingen": [
     "openbaring 2:12",
     "openbaring 1:11"
    ],
    "toelichting": "Een van de zeven gemeenten, waar 'de troon van satan' stond."
   }
  },
  {
   "type": "Feature",
   "geometry": {
    "type": "Point",
    "coordinates": [
     27.142,
     38.419
    ]
   },
   "properties": {
    "naam": "Smyrna",
    "type": "stad",
    "moderneNaam": "Izmir, Turkije",
    "landModern": "Turkije",
    "zekerheid": "zeker",
    "verwijzingen": [
     "openbaring 2:8",
     "openbaring 1:11"
    ],
    "toelichting": "Een van de zeven gemeenten, geprezen om haar volharding."
   }
  },
  {
   "type": "Feature",
   "geometry": {
    "type": "Point",
    "coordinates": [
     28.532,
     38.348
    ]
   },
   "properties": {
    "naam": "Filadelfia",
    "type": "stad",
    "moderneNaam": "Alaşehir, Turkije",
    "landModern": "Turkije",
    "zekerheid": "zeker",
    "verwijzingen": [
     "openbaring 3:7",
     "openbaring 1:11"
    ],
    "toelichting": "Een van de zeven gemeenten, waarvoor een open deur werd gezet."
   }
  },
  {
   "type": "Feature",
   "geometry": {
    "type": "Point",
    "coordinates": [
     27.842,
     38.918
    ]
   },
   "properties": {
    "naam": "Thyatira",
    "type": "stad",
    "moderneNaam": "Akhisar, Turkije",
    "landModern": "Turkije",
    "zekerheid": "zeker",
    "verwijzingen": [
     "openbaring 2:18",
     "handelingen 16:14"
    ],
    "toelichting": "Stad van de purperverkoopster Lydia en een van de zeven gemeenten."
   }
  },
  {
   "type": "Feature",
   "geometry": {
    "type": "Point",
    "coordinates": [
     29.108,
     37.836
    ]
   },
   "properties": {
    "naam": "Laodicea",
    "type": "stad",
    "moderneNaam": "bij Denizli, Turkije",
    "landModern": "Turkije",
    "zekerheid": "zeker",
    "verwijzingen": [
     "openbaring 3:14",
     "kolossenzen 4:16"
    ],
    "toelichting": "Rijke stad, berispt om haar lauwheid, een van de zeven gemeenten."
   }
  },
  {
   "type": "Feature",
   "geometry": {
    "type": "Point",
    "coordinates": [
     29.267,
     37.79
    ]
   },
   "properties": {
    "naam": "Kolosse",
    "type": "stad",
    "moderneNaam": "bij Honaz, Turkije",
    "landModern": "Turkije",
    "zekerheid": "waarschijnlijk",
    "verwijzingen": [
     "kolossenzen 1:2"
    ],
    "toelichting": "Stad in Frygië, ontvangers van Paulus' brief aan de Kolossenzen."
   }
  },
  {
   "type": "Feature",
   "geometry": {
    "type": "Point",
    "coordinates": [
     31.183,
     38.305
    ]
   },
   "properties": {
    "naam": "Antiochië (Pisidië)",
    "type": "stad",
    "moderneNaam": "Yalvaç, Turkije",
    "landModern": "Turkije",
    "zekerheid": "zeker",
    "verwijzingen": [
     "handelingen 13:14",
     "2timotheus 3:11"
    ],
    "toelichting": "Stad in Pisidië waar Paulus in de synagoge predikte."
   }
  },
  {
   "type": "Feature",
   "geometry": {
    "type": "Point",
    "coordinates": [
     32.493,
     37.871
    ]
   },
   "properties": {
    "naam": "Ikonium",
    "type": "stad",
    "moderneNaam": "Konya, Turkije",
    "landModern": "Turkije",
    "zekerheid": "zeker",
    "verwijzingen": [
     "handelingen 13:51",
     "handelingen 14:1",
     "2timotheus 3:11"
    ],
    "toelichting": "Stad in Lykaonië bezocht op Paulus' eerste zendingsreis."
   }
  },
  {
   "type": "Feature",
   "geometry": {
    "type": "Point",
    "coordinates": [
     30.854,
     36.961
    ]
   },
   "properties": {
    "naam": "Perge",
    "type": "stad",
    "moderneNaam": "bij Aksu, Turkije",
    "landModern": "Turkije",
    "zekerheid": "zeker",
    "verwijzingen": [
     "handelingen 13:13",
     "handelingen 14:25"
    ],
    "toelichting": "Stad in Pamfylië waar Johannes Markus zich terugtrok."
   }
  },
  {
   "type": "Feature",
   "geometry": {
    "type": "Point",
    "coordinates": [
     34.895,
     36.916
    ]
   },
   "properties": {
    "naam": "Tarsen",
    "type": "stad",
    "moderneNaam": "Tarsus, Turkije",
    "landModern": "Turkije",
    "zekerheid": "zeker",
    "verwijzingen": [
     "handelingen 9:11",
     "handelingen 21:39",
     "handelingen 22:3"
    ],
    "toelichting": "Geboortestad van de apostel Paulus in Cilicië."
   }
  },
  {
   "type": "Feature",
   "geometry": {
    "type": "Point",
    "coordinates": [
     27.278,
     37.53
    ]
   },
   "properties": {
    "naam": "Milete",
    "type": "stad",
    "moderneNaam": "Milet, Turkije",
    "landModern": "Turkije",
    "zekerheid": "zeker",
    "verwijzingen": [
     "handelingen 20:15",
     "handelingen 20:17",
     "2timotheus 4:20"
    ],
    "toelichting": "Havenstad waar Paulus afscheid nam van de Efezische oudsten."
   }
  },
  {
   "type": "Feature",
   "geometry": {
    "type": "Point",
    "coordinates": [
     27.015,
     37.66
    ]
   },
   "properties": {
    "naam": "Trogyllion",
    "type": "stad",
    "moderneNaam": "kust bij Samos, Turkije",
    "landModern": "Turkije",
    "zekerheid": "onzeker",
    "verwijzingen": [
     "handelingen 20:15"
    ],
    "toelichting": "Plaats aan de kust van Asia op Paulus' reis naar Jeruzalem."
   }
  },
  {
   "type": "Feature",
   "geometry": {
    "type": "Point",
    "coordinates": [
     33.0,
     35.0
    ]
   },
   "properties": {
    "naam": "Cyprus",
    "type": "eiland",
    "moderneNaam": "Cyprus",
    "landModern": "Cyprus",
    "zekerheid": "zeker",
    "verwijzingen": [
     "handelingen 13:4",
     "handelingen 4:36",
     "handelingen 11:19"
    ],
    "toelichting": "Eiland en herkomst van Barnabas, eerste zendingsgebied."
   }
  },
  {
   "type": "Feature",
   "geometry": {
    "type": "Point",
    "coordinates": [
     33.9,
     35.181
    ]
   },
   "properties": {
    "naam": "Salamis",
    "type": "stad",
    "moderneNaam": "bij Famagusta, Cyprus",
    "landModern": "Cyprus",
    "zekerheid": "zeker",
    "verwijzingen": [
     "handelingen 13:5"
    ],
    "toelichting": "Havenstad op Cyprus waar Paulus en Barnabas predikten."
   }
  },
  {
   "type": "Feature",
   "geometry": {
    "type": "Point",
    "coordinates": [
     32.407,
     34.755
    ]
   },
   "properties": {
    "naam": "Pafos",
    "type": "stad",
    "moderneNaam": "Paphos, Cyprus",
    "landModern": "Cyprus",
    "zekerheid": "zeker",
    "verwijzingen": [
     "handelingen 13:6",
     "handelingen 13:13"
    ],
    "toelichting": "Stad op Cyprus waar de stadhouder Sergius Paulus geloofde."
   }
  },
  {
   "type": "Feature",
   "geometry": {
    "type": "Point",
    "coordinates": [
     24.809,
     35.24
    ]
   },
   "properties": {
    "naam": "Kreta",
    "type": "eiland",
    "moderneNaam": "Kreta, Griekenland",
    "landModern": "Griekenland",
    "zekerheid": "zeker",
    "verwijzingen": [
     "handelingen 27:7",
     "titus 1:5"
    ],
    "toelichting": "Eiland waar Titus werd achtergelaten om gemeenten te ordenen."
   }
  },
  {
   "type": "Feature",
   "geometry": {
    "type": "Point",
    "coordinates": [
     26.547,
     37.309
    ]
   },
   "properties": {
    "naam": "Patmos",
    "type": "eiland",
    "moderneNaam": "Patmos, Griekenland",
    "landModern": "Griekenland",
    "zekerheid": "zeker",
    "verwijzingen": [
     "openbaring 1:9"
    ],
    "toelichting": "Eiland waar Johannes verbannen was en het visioen ontving."
   }
  },
  {
   "type": "Feature",
   "geometry": {
    "type": "Point",
    "coordinates": [
     14.514,
     35.899
    ]
   },
   "properties": {
    "naam": "Melíte",
    "type": "eiland",
    "moderneNaam": "Malta",
    "landModern": "Malta",
    "zekerheid": "zeker",
    "verwijzingen": [
     "handelingen 28:1"
    ],
    "toelichting": "Eiland waar Paulus na de schipbreuk aan land kwam."
   }
  },
  {
   "type": "Feature",
   "geometry": {
    "type": "Point",
    "coordinates": [
     15.293,
     37.075
    ]
   },
   "properties": {
    "naam": "Syracuse",
    "type": "stad",
    "moderneNaam": "Syracuse (Sicilië), Italië",
    "landModern": "Italië",
    "zekerheid": "zeker",
    "verwijzingen": [
     "handelingen 28:12"
    ],
    "toelichting": "Havenstad op Sicilië waar Paulus drie dagen bleef."
   }
  },
  {
   "type": "Feature",
   "geometry": {
    "type": "Point",
    "coordinates": [
     26.336,
     39.49
    ]
   },
   "properties": {
    "naam": "Assus",
    "type": "stad",
    "moderneNaam": "Behramkale, Turkije",
    "landModern": "Turkije",
    "zekerheid": "zeker",
    "verwijzingen": [
     "handelingen 20:13",
     "handelingen 20:14"
    ],
    "toelichting": "Havenstad waar Paulus zich weer bij zijn reisgenoten voegde."
   }
  },
  {
   "type": "Feature",
   "geometry": {
    "type": "Point",
    "coordinates": [
     35.85,
     33.9
    ]
   },
   "properties": {
    "naam": "Libanon",
    "type": "streek",
    "moderneNaam": "Libanongebergte, Libanon",
    "landModern": "Libanon",
    "zekerheid": "zeker",
    "verwijzingen": [
     "1koningen 5:6",
     "psalmen 92:13",
     "hooglied 4:11"
    ],
    "toelichting": "Gebergte beroemd om zijn ceders, gebruikt voor de tempel."
   }
  },
  {
   "type": "Feature",
   "geometry": {
    "type": "Point",
    "coordinates": [
     34.6,
     31.4
    ]
   },
   "properties": {
    "naam": "Filistea",
    "type": "streek",
    "moderneNaam": "kuststrook Gazastrook, Palestina",
    "landModern": "Palestijnse gebieden",
    "zekerheid": "zeker",
    "verwijzingen": [
     "exodus 15:14",
     "psalmen 60:10",
     "joel 3:4"
    ],
    "toelichting": "Kuststrook van de Filistijnen in het zuidwesten van Kanaän."
   }
  },
  {
   "type": "Feature",
   "geometry": {
    "type": "Point",
    "coordinates": [
     36.5,
     34.5
    ]
   },
   "properties": {
    "naam": "Aram",
    "type": "land",
    "moderneNaam": "Syrië",
    "landModern": "Syrië",
    "zekerheid": "zeker",
    "verwijzingen": [
     "genesis 28:5",
     "2samuel 8:5",
     "2koningen 5:1"
    ],
    "toelichting": "Land van de Arameeërs (Syrië) ten noordoosten van Israël."
   }
  },
  {
   "type": "Feature",
   "geometry": {
    "type": "Point",
    "coordinates": [
     43.0,
     35.5
    ]
   },
   "properties": {
    "naam": "Assyrië",
    "type": "land",
    "moderneNaam": "noord-Irak",
    "landModern": "Irak",
    "zekerheid": "zeker",
    "verwijzingen": [
     "2koningen 15:29",
     "jesaja 10:5",
     "jona 3:2"
    ],
    "toelichting": "Grootmacht die het tienstammenrijk in ballingschap voerde."
   }
  },
  {
   "type": "Feature",
   "geometry": {
    "type": "Point",
    "coordinates": [
     40.0,
     34.5
    ]
   },
   "properties": {
    "naam": "Eufraat",
    "type": "rivier",
    "moderneNaam": "Eufraat, Irak/Syrië",
    "landModern": "Irak",
    "zekerheid": "zeker",
    "verwijzingen": [
     "genesis 2:14",
     "genesis 15:18",
     "jeremia 51:63"
    ],
    "toelichting": "Grote rivier van Mesopotamië, oostgrens van het beloofde land."
   }
  },
  {
   "type": "Feature",
   "geometry": {
    "type": "Point",
    "coordinates": [
     43.7,
     33.3
    ]
   },
   "properties": {
    "naam": "Hiddekel",
    "type": "rivier",
    "moderneNaam": "Tigris, Irak",
    "landModern": "Irak",
    "zekerheid": "zeker",
    "verwijzingen": [
     "genesis 2:14",
     "daniel 10:4"
    ],
    "toelichting": "De rivier Tigris, een van de vier rivieren van Eden."
   }
  },
  {
   "type": "Feature",
   "geometry": {
    "type": "Point",
    "coordinates": [
     53.0,
     32.0
    ]
   },
   "properties": {
    "naam": "Perzië",
    "type": "land",
    "moderneNaam": "Iran",
    "landModern": "Iran",
    "zekerheid": "zeker",
    "verwijzingen": [
     "ezra 1:1",
     "esther 1:3",
     "daniel 5:28"
    ],
    "toelichting": "Rijk van Kores dat de Joden liet terugkeren uit ballingschap."
   }
  },
  {
   "type": "Feature",
   "geometry": {
    "type": "Point",
    "coordinates": [
     45.32,
     15.42
    ]
   },
   "properties": {
    "naam": "Scheba",
    "type": "land",
    "moderneNaam": "Jemen",
    "landModern": "Jemen",
    "zekerheid": "waarschijnlijk",
    "verwijzingen": [
     "1koningen 10:1",
     "psalmen 72:10",
     "jesaja 60:6"
    ],
    "toelichting": "Land van de koningin die Salomo bezocht, in Zuid-Arabië."
   }
  },
  {
   "type": "Feature",
   "geometry": {
    "type": "Point",
    "coordinates": [
     31.8,
     19.6
    ]
   },
   "properties": {
    "naam": "Cus",
    "type": "land",
    "moderneNaam": "Soedan/Nubië",
    "landModern": "Soedan",
    "zekerheid": "waarschijnlijk",
    "verwijzingen": [
     "genesis 2:13",
     "jesaja 18:1",
     "handelingen 8:27"
    ],
    "toelichting": "Land ten zuiden van Egypte (Nubië/Morenland)."
   }
  },
  {
   "type": "Feature",
   "geometry": {
    "type": "Point",
    "coordinates": [
     35.2137,
     31.7683
    ]
   },
   "properties": {
    "naam": "Salem",
    "type": "stad",
    "moderneNaam": "Jeruzalem, Israël",
    "landModern": "Israël",
    "zekerheid": "waarschijnlijk",
    "verwijzingen": [
     "genesis 14:18",
     "psalmen 76:3",
     "hebreeen 7:1"
    ],
    "toelichting": "Stad van Melchizedek, algemeen vereenzelvigd met Jeruzalem."
   }
  },
  {
   "type": "Feature",
   "geometry": {
    "type": "Point",
    "coordinates": [
     34.8917,
     32.5
    ]
   },
   "properties": {
    "naam": "Caesarea",
    "type": "stad",
    "moderneNaam": "Caesarea Maritima, Israël",
    "landModern": "Israël",
    "zekerheid": "zeker",
    "verwijzingen": [
     "handelingen 10:1",
     "handelingen 23:23",
     "handelingen 25:4"
    ],
    "toelichting": "Romeinse havenstad, zetel van de landvoogd, gemeente van Cornelius."
   }
  },
  {
   "type": "Feature",
   "geometry": {
    "type": "Point",
    "coordinates": [
     35.694,
     33.248
    ]
   },
   "properties": {
    "naam": "Caesarea Filippi",
    "type": "stad",
    "moderneNaam": "Banias, Golan",
    "landModern": "Syrië",
    "zekerheid": "zeker",
    "verwijzingen": [
     "mattheus 16:13",
     "markus 8:27"
    ],
    "toelichting": "Stad bij de Hermon waar Petrus zijn belijdenis uitsprak."
   }
  },
  {
   "type": "Feature",
   "geometry": {
    "type": "Point",
    "coordinates": [
     35.345,
     32.748
    ]
   },
   "properties": {
    "naam": "Kana",
    "type": "dorp",
    "moderneNaam": "Kafr Kanna, Israël",
    "landModern": "Israël",
    "zekerheid": "waarschijnlijk",
    "verwijzingen": [
     "johannes 2:1",
     "johannes 4:46",
     "johannes 21:2"
    ],
    "toelichting": "Dorp in Galilea waar Jezus water in wijn veranderde."
   }
  },
  {
   "type": "Feature",
   "geometry": {
    "type": "Point",
    "coordinates": [
     35.345,
     32.636
    ]
   },
   "properties": {
    "naam": "Naïn",
    "type": "dorp",
    "moderneNaam": "Nein, Israël",
    "landModern": "Israël",
    "zekerheid": "waarschijnlijk",
    "verwijzingen": [
     "lukas 7:11"
    ],
    "toelichting": "Dorp waar Jezus de zoon van de weduwe opwekte."
   }
  },
  {
   "type": "Feature",
   "geometry": {
    "type": "Point",
    "coordinates": [
     35.02,
     31.84
    ]
   },
   "properties": {
    "naam": "Emmaüs",
    "type": "dorp",
    "moderneNaam": "omgeving Jeruzalem, Israël",
    "landModern": "Israël",
    "zekerheid": "onzeker",
    "verwijzingen": [
     "lukas 24:13"
    ],
    "toelichting": "Dorp waar de Opgestane verscheen; exacte plaats omstreden."
   }
  },
  {
   "type": "Feature",
   "geometry": {
    "type": "Point",
    "coordinates": [
     35.0,
     28.25
    ]
   },
   "properties": {
    "id": "midian",
    "naam": "Midian",
    "type": "streek",
    "moderneNaam": "noordwest-Arabië / oostelijke Sinaï",
    "landModern": "Jordanië / Saoedi-Arabië",
    "zekerheid": "onzeker",
    "verwijzingen": [
     "genesis 25:2",
     "exodus 2:15",
     "richteren 6:1"
    ],
    "toelichting": "Woestijngebied van de Midianieten. De precieze ligging en omvang zijn onzeker; het punt is een oriëntatie."
   }
  }
 ]
}
